GLOBALSTAR M068         
1 32266U 07048D   24123.46516103 -.00000051  00000+0  29415-3 0  9996
2 32266  51.9861 114.2346 0000906 327.6754 202.9249 12.62787037765662
GLOBALSTAR M079         
1 37188U 10054A   24123.51927161 -.00000076  00000+0  15546-3 0  9998
2 37188  52.0041 309.9255 0001047 104.1247 274.3175 12.62269171624597
GLOBALSTAR M074         
1 37189U 10054B   24123.46555977 -.00000074  00000+0  16868-3 0  9991
2 37189  52.0020 309.4760 0000776 102.0840 271.4730 12.62267998625192
GLOBALSTAR M076         
1 37190U 10054C   24123.28884874 -.00000057  00000+0  25840-3 0  9995
2 37190  52.0032 310.1458 0000996 130.8934  40.5749 12.62277936624880
GLOBALSTAR M077         
1 37191U 10054D   24123.57221017 -.00000084  00000+0  10926-3 0  9991
2 37191  52.0067 266.0220 0000653 121.7520 316.7327 12.62272309625290
GLOBALSTAR M075         
1 37192U 10054E   24123.05938866 -.00000074  00000+0  16491-3 0  9994
2 37192  51.9966 353.3312 0000915  86.6668  60.8070 12.62273408624081
GLOBALSTAR M073         
1 37193U 10054F   24123.59907080 -.00000087  00000+0  95530-4 0  9994
2 37193  52.0057 265.1932 0000780 124.0922 316.5962 12.62264604625982
GLOBALSTAR M083         
1 37739U 11033A   24123.51800194 -.00000092  00000+0  64630-4 0  9991
2 37739  51.9849 214.7321 0000525 101.3450 271.6952 12.62269665594996
GLOBALSTAR M088         
1 37740U 11033B   24123.25381343 -.00000088  00000+0  87776-4 0  9995
2 37740  51.9708 121.3715 0000449  63.2743 309.1676 12.62267783590791
GLOBALSTAR M091         
1 37741U 11033C   24123.61881024 -.00000091  00000+0  69955-4 0  9990
2 37741  51.9995  83.0795 0000771  55.8467 115.5125 12.62262080591334
GLOBALSTAR M085         
1 37742U 11033D   24123.52639214 -.00000088  00000+0  90286-4 0  9990
2 37742  51.9891  34.7639 0000942  68.0986 103.2913 12.62270247591830
GLOBALSTAR M081         
1 37743U 11033E   24123.47356100 -.00000097  00000+0  39239-4 0  9996
2 37743  51.9979  37.4582 0000973  79.1198  91.9590 12.62271246591976
GLOBALSTAR M089         
1 37744U 11033F   24123.63817354 -.00000067  00000+0  20626-3 0  9994
2 37744  51.9948 351.2663 0000754 113.2846 264.9552 12.62263024592849
GLOBALSTAR M084         
1 38040U 11080A   24123.57065071 -.00000092  00000+0  65050-4 0  9999
2 38040  51.9998 218.5383 0000492 155.5967 217.5159 12.62261644571097
GLOBALSTAR M080         
1 38041U 11080B   24123.54452135 -.00000097  00000+0  35512-4 0  9993
2 38041  52.0054 220.0823 0000777 162.0189 211.0842 12.62271977570935
GLOBALSTAR M082         
1 38042U 11080C   24123.59120413 -.00000086  00000+0  99271-4 0  9990
2 38042  52.0057 175.3445 0000533  38.6264 126.3584 12.62269084571649
GLOBALSTAR M092         
1 38043U 11080D   24123.62575609 -.00000075  00000+0  16274-3 0  9995
2 38043  52.0080 265.5904 0000488 123.2465 320.2002 12.62279712570100
GLOBALSTAR M090         
1 38044U 11080E   24123.42559912 -.00000088  00000+0  88378-4 0  9992
2 38044  51.9865 170.1848 0000358  67.7177 305.3277 12.62262702571746
GLOBALSTAR M086         
1 38045U 11080F   24123.56452525 -.00000092  00000+0  68340-4 0  9992
2 38045  51.9877 170.2811 0001180 128.7363  35.8426 12.62270377571704
GLOBALSTAR M097         
1 39072U 13005A   24123.31752457 -.00000102  00000+0  12346-4 0  9999
2 39072  52.0042  85.1609 0000697  68.1793 291.9148 12.62262575518928
GLOBALSTAR M093         
1 39073U 13005B   24123.13251309 -.00000090  00000+0  77839-4 0  9994
2 39073  51.9809  79.6834 0000820  65.6205 294.4747 12.62263679518855
GLOBALSTAR M094         
1 39074U 13005C   24122.89500018 -.00000080  00000+0  13501-3 0  9995
2 39074  51.9979 354.3807 0001041  84.6927 275.4059 12.62265157520452
GLOBALSTAR M096         
1 39075U 13005D   24123.46239670 -.00000085  00000+0  10349-3 0  9995
2 39075  52.0093  40.8443 0001014  69.5116 290.5859 12.62264911519425
GLOBALSTAR M078         
1 39076U 13005E   24123.27819293 -.00000097  00000+0  36657-4 0  9994
2 39076  51.9844 126.4784 0001055   6.7061 353.3820 12.62268454518021
GLOBALSTAR M095         
1 39077U 13005F   24123.38296136 -.00000092  00000+0  64688-4 0  9992
2 39077  51.9775 123.5543 0000869  37.9114 322.1813 12.62265878517890
GLOBALSTAR M087         
1 52888U 22064A   24123.37840142 -.00000073  00000+0  10552-3 0  9992
2 52888  51.9775   8.1140 0008640 247.1095 112.8894 13.37571966 91390
